{"type": "FeatureCollection", "features": [ {"type": "Feature", "properties": {"norad_id": 57401, "name": "TIANMU-1 09", "group": "weather", "lat": -3.3416329684786525, "lon": -145.38489882231025, "alt_km": 485.6568734988741, "timestamp": "2025-12-11T20:41:14.731198+00:00", "meta": {"OBJECT_NAME": "TIANMU-1 09", "OBJECT_ID": "2023-101C", "EPOCH": "2025-12-11T13:36:07.924032", "MEAN_MOTION": 15.28069377, "ECCENTRICITY": 0.00067765, "INCLINATION": 97.2824, "RA_OF_ASC_NODE": 34.7544, "ARG_OF_PERICENTER": 87.079, "MEAN_ANOMALY": 273.1225, "EPHEMERIS_TYPE": 0, "CLASSIFICATION_TYPE": "U", "NORAD_CAT_ID": 57401, "ELEMENT_SET_NO": 999, "REV_AT_EPOCH": 13297, "BSTAR": 0.00078695306, "MEAN_MOTION_DOT": 0.00021522, "MEAN_MOTION_DDOT": 0}, "tle": {"line1": "1 57401U 23101C   25345.56675838  .00021522  00000+0  78695-3 0  9990", "line2": "2 57401  97.2824  34.7544 0006776  87.0790 273.1225 15.28069377132977"}}, "geometry": {"type": "Point", "coordinates": [-145.38489882231025, -3.3416329684786525]}}, {"type": "Feature", "properties": {"norad_id": 57402, "name": "TIANMU-1 10", "group": "weather", "lat": -5.085630100557663, "lon": 36.544572558438524, "alt_km": 485.45328672226606, "timestamp": "2025-12-11T20:41:14.731210+00:00", "meta": {"OBJECT_NAME": "TIANMU-1 10", "OBJECT_ID": "2023-101D", "EPOCH": "2025-12-11T14:25:23.650752", "MEAN_MOTION": 15.28047998, "ECCENTRICITY": 0.00085779, "INCLINATION": 97.2905, "RA_OF_ASC_NODE": 35.6364, "ARG_OF_PERICENTER": 86.7531, "MEAN_ANOMALY": 273.469, "EPHEMERIS_TYPE": 0, "CLASSIFICATION_TYPE": "U", "NORAD_CAT_ID": 57402, "ELEMENT_SET_NO": 999, "REV_AT_EPOCH": 13297, "BSTAR": 0.00041132737, "MEAN_MOTION_DOT": 0.00011197, "MEAN_MOTION_DDOT": 0}, "tle": {"line1": "1 57402U 23101D   25345.60096818  .00011197  00000+0  41133-3 0  9995", "line2": "2 57402  97.2905  35.6364 0008577  86.7531 273.4690 15.28047998132972"}}, "geometry": {"type": "Point", "coordinates": [36.544572558438524, -5.085630100557663]}}, {"type": "Feature", "properties": {"norad_id": 57490, "name": "FENGYUN 3F", "group": "weather", "lat": -55.115206242753864, "lon": -138.52973962735516, "alt_km": 833.0601044748582, "timestamp": "2025-12-11T20:41:14.731220+00:00", "meta": {"OBJECT_NAME": "FENGYUN 3F", "OBJECT_ID": "2023-111A", "EPOCH": "2025-12-11T14:30:20.223936", "MEAN_MOTION": 14.19894209, "ECCENTRICITY": 6.635e-05, "INCLINATION": 98.7085, "RA_OF_ASC_NODE": 53.9161, "ARG_OF_PERICENTER": 99.6428, "MEAN_ANOMALY": 260.4824, "EPHEMERIS_TYPE": 0, "CLASSIFICATION_TYPE": "U", "NORAD_CAT_ID": 57490, "ELEMENT_SET_NO": 999, "REV_AT_EPOCH": 12224, "BSTAR": 0.00015255069, "MEAN_MOTION_DOT": 2.8e-06, "MEAN_MOTION_DDOT": 0}, "tle": {"line1": "1 57490U 23111A   25345.60440074  .00000280  00000+0  15255-3 0  9997", "line2": "2 57490  98.7085  53.9161 0000663  99.6428 260.4824 14.19894209122246"}}, "geometry": {"type": "Point", "coordinates": [-138.52973962735516, -55.115206242753864]}}, {"type": "Feature", "properties": {"norad_id": 58584, "name": "ARKTIKA-M 2", "group": "weather", "lat": 29.399260822790822, "lon": -168.48484980681874, "alt_km": 16896.96315303198, "timestamp": "2025-12-11T20:41:14.731232+00:00", "meta": {"OBJECT_NAME": "ARKTIKA-M 2", "OBJECT_ID": "2023-198A", "EPOCH": "2025-12-08T20:10:13.977120", "MEAN_MOTION": 2.0060476, "ECCENTRICITY": 0.68646991, "INCLINATION": 63.2247, "RA_OF_ASC_NODE": 175.3152, "ARG_OF_PERICENTER": 268.1185, "MEAN_ANOMALY": 18.8267, "EPHEMERIS_TYPE": 0, "CLASSIFICATION_TYPE": "U", "NORAD_CAT_ID": 58584, "ELEMENT_SET_NO": 999, "REV_AT_EPOCH": 1450, "BSTAR": 0, "MEAN_MOTION_DOT": 1.66e-06, "MEAN_MOTION_DDOT": 0}, "tle": {"line1": "1 58584U 23198A   25342.84043955  .00000166  00000+0  00000+0 0  9998", "line2": "2 58584  63.2247 175.3152 6864699 268.1185  18.8267  2.00604760 14506"}}, "geometry": {"type": "Point", "coordinates": [-168.48484980681874, 29.399260822790822]}}, {"type": "Feature", "properties": {"norad_id": 58645, "name": "TIANMU-1 11", "group": "weather", "lat": -5.217919497983558, "lon": -175.17592785243377, "alt_km": 499.2100151961331, "timestamp": "2025-12-11T20:41:14.731247+00:00", "meta": {"OBJECT_NAME": "TIANMU-1 11", "OBJECT_ID": "2023-205A", "EPOCH": "2025-12-11T12:00:04.679424", "MEAN_MOTION": 15.24588775, "ECCENTRICITY": 0.00080229, "INCLINATION": 97.3611, "RA_OF_ASC_NODE": 5.1449, "ARG_OF_PERICENTER": 315.5983, "MEAN_ANOMALY": 44.4611, "EPHEMERIS_TYPE": 0, "CLASSIFICATION_TYPE": "U", "NORAD_CAT_ID": 58645, "ELEMENT_SET_NO": 999, "REV_AT_EPOCH": 10890, "BSTAR": 0.0007911299, "MEAN_MOTION_DOT": 0.00019479, "MEAN_MOTION_DDOT": 0}, "tle": {"line1": "1 58645U 23205A   25345.50005416  .00019479  00000+0  79113-3 0  9993", "line2": "2 58645  97.3611   5.1449 0008022 315.5983  44.4611 15.24588775108906"}}, "geometry": {"type": "Point", "coordinates": [-175.17592785243377, -5.217919497983558]}}, {"type": "Feature", "properties": {"norad_id": 58646, "name": "TIANMU-1 12", "group": "weather", "lat": 37.39601660421774, "lon": -0.36437572270858815, "alt_km": 490.569952674482, "timestamp": "2025-12-11T20:41:14.731257+00:00", "meta": {"OBJECT_NAME": "TIANMU-1 12", "OBJECT_ID": "2023-205B", "EPOCH": "2025-12-11T12:38:44.689632", "MEAN_MOTION": 15.24471379, "ECCENTRICITY": 0.00058901, "INCLINATION": 97.36, "RA_OF_ASC_NODE": 4.9772, "ARG_OF_PERICENTER": 296.7254, "MEAN_ANOMALY": 63.338, "EPHEMERIS_TYPE": 0, "CLASSIFICATION_TYPE": "U", "NORAD_CAT_ID": 58646, "ELEMENT_SET_NO": 999, "REV_AT_EPOCH": 10889, "BSTAR": 0.00079773949, "MEAN_MOTION_DOT": 0.00019566, "MEAN_MOTION_DDOT": 0}, "tle": {"line1": "1 58646U 23205B   25345.52690613  .00019566  00000+0  79774-3 0  9995", "line2": "2 58646  97.3600   4.9772 0005890 296.7254  63.3380 15.24471379108894"}}, "geometry": {"type": "Point", "coordinates": [-0.36437572270858815, 37.39601660421774]}}, {"type": "Feature", "properties": {"norad_id": 58647, "name": "TIANMU-1 13", "group": "weather", "lat": -33.352287863311766, "lon": -179.3753244881803, "alt_km": 496.3010395643387, "timestamp": "2025-12-11T20:41:14.731267+00:00", "meta": {"OBJECT_NAME": "TIANMU-1 13", "OBJECT_ID": "2023-205C", "EPOCH": "2025-12-11T15:01:37.322688", "MEAN_MOTION": 15.24501374, "ECCENTRICITY": 0.00060507, "INCLINATION": 97.3627, "RA_OF_ASC_NODE": 5.2751, "ARG_OF_PERICENTER": 272.2545, "MEAN_ANOMALY": 87.8, "EPHEMERIS_TYPE": 0, "CLASSIFICATION_TYPE": "U", "NORAD_CAT_ID": 58647, "ELEMENT_SET_NO": 999, "REV_AT_EPOCH": 10890, "BSTAR": 0.00038169381, "MEAN_MOTION_DOT": 9.321e-05, "MEAN_MOTION_DDOT": 0}, "tle": {"line1": "1 58647U 23205C   25345.62612642  .00009321  00000+0  38169-3 0  9994", "line2": "2 58647  97.3627   5.2751 0006050 272.2545  87.8000 15.24501374108907"}}, "geometry": {"type": "Point", "coordinates": [-179.3753244881803, -33.352287863311766]}}, {"type": "Feature", "properties": {"norad_id": 58648, "name": "TIANMU-1 14", "group": "weather", "lat": -54.62103483287823, "lon": 15.33810192045444, "alt_km": 495.1450183388806, "timestamp": "2025-12-11T20:41:14.731279+00:00", "meta": {"OBJECT_NAME": "TIANMU-1 14", "OBJECT_ID": "2023-205D", "EPOCH": "2025-12-11T11:28:39.572256", "MEAN_MOTION": 15.24496533, "ECCENTRICITY": 0.00068805, "INCLINATION": 97.3559, "RA_OF_ASC_NODE": 4.4796, "ARG_OF_PERICENTER": 278.1719, "MEAN_ANOMALY": 81.8738, "EPHEMERIS_TYPE": 0, "CLASSIFICATION_TYPE": "U", "NORAD_CAT_ID": 58648, "ELEMENT_SET_NO": 999, "REV_AT_EPOCH": 10888, "BSTAR": 0.00083373237, "MEAN_MOTION_DOT": 0.00020474, "MEAN_MOTION_DDOT": 0}, "tle": {"line1": "1 58648U 23205D   25345.47823579  .00020474  00000+0  83373-3 0  9990", "line2": "2 58648  97.3559   4.4796 0006880 278.1719  81.8738 15.24496533108880"}}, "geometry": {"type": "Point", "coordinates": [15.33810192045444, -54.62103483287823]}}, {"type": "Feature", "properties": {"norad_id": 58660, "name": "TIANMU-1 19", "group": "weather", "lat": -9.110495320041025, "lon": -84.30000857123332, "alt_km": 485.44150407233883, "timestamp": "2025-12-11T20:41:14.731290+00:00", "meta": {"OBJECT_NAME": "TIANMU-1 19", "OBJECT_ID": "2023-208A", "EPOCH": "2025-12-11T13:34:28.640928", "MEAN_MOTION": 15.27826854, "ECCENTRICITY": 0.00040593, "INCLINATION": 97.4384, "RA_OF_ASC_NODE": 96.6048, "ARG_OF_PERICENTER": 258.3743, "MEAN_ANOMALY": 101.7041, "EPHEMERIS_TYPE": 0, "CLASSIFICATION_TYPE": "U", "NORAD_CAT_ID": 58660, "ELEMENT_SET_NO": 999, "REV_AT_EPOCH": 10864, "BSTAR": 0.00083050895, "MEAN_MOTION_DOT": 0.00022541, "MEAN_MOTION_DDOT": 0}, "tle": {"line1": "1 58660U 23208A   25345.56560927  .00022541  00000+0  83051-3 0  9992", "line2": "2 58660  97.4384  96.6048 0004059 258.3743 101.7041 15.27826854108646"}}, "geometry": {"type": "Point", "coordinates": [-84.30000857123332, -9.110495320041025]}}, {"type": "Feature", "properties": {"norad_id": 58661, "name": "TIANMU-1 20", "group": "weather", "lat": -77.24839585537228, "lon": -117.8808457089601, "alt_km": 481.7883810489575, "timestamp": "2025-12-11T20:41:14.731300+00:00", "meta": {"OBJECT_NAME": "TIANMU-1 20", "OBJECT_ID": "2023-208B", "EPOCH": "2025-12-11T11:42:06.731424", "MEAN_MOTION": 15.29018979, "ECCENTRICITY": 0.00062989, "INCLINATION": 97.4322, "RA_OF_ASC_NODE": 96.9732, "ARG_OF_PERICENTER": 271.3687, "MEAN_ANOMALY": 88.6831, "EPHEMERIS_TYPE": 0, "CLASSIFICATION_TYPE": "U", "NORAD_CAT_ID": 58661, "ELEMENT_SET_NO": 999, "REV_AT_EPOCH": 10870, "BSTAR": 0.00089991058, "MEAN_MOTION_DOT": 0.00025354, "MEAN_MOTION_DDOT": 0}, "tle": {"line1": "1 58661U 23208B   25345.48757791  .00025354  00000+0  89991-3 0  9995", "line2": "2 58661  97.4322  96.9732 0006298 271.3687  88.6831 15.29018979108701"}}, "geometry": {"type": "Point", "coordinates": [-117.8808457089601, -77.24839585537228]}}]}